Chief
1 51053U 22002BX  25308.62091721  .00030597  00000+0  55283-3 0  9995
2 51053  97.3162  18.5553 0003625  48.0410 312.1150 15.49656913211910
Follower
1 60531U 24149BR  25308.17016602  .00005181  00000+0  45510-3 0  9998
2 60531  97.7074  22.6954 0001936  74.1043 286.0392 14.97007322 66363
